{
  "norad_id": 64317,
  "name": "STARLINK-11736 [DTC]",
  "history": [
    {
      "epoch": "2026-03-28T20:15:57.045600Z",
      "apogee_km": 357.0394871085791,
      "perigee_km": 355.8801936084783,
      "latitude_deg": 1.7296518725264238e-05,
      "longitude_deg": 143.80570381935914,
      "height_km": 355.8904837818856,
      "semi_major_axis_km": 6734.596840358528,
      "eccentricity": 8.607e-05,
      "inclination_deg": 42.9985,
      "raan_deg": 274.0524,
      "arg_perigee_deg": 306.0432,
      "mean_anomaly_deg": 54.0356,
      "mean_motion_rev_day": 15.70852323
    }
  ]
}