{"fetched_at":"2026-03-29T16:36:15Z","count":15609,"tles":[{"name":"STARLINK-11736 [DTC]","line1":"1 64317U 25124A   26087.84441025  .00241157  00000+0  18279-2 0  9994","line2":"2 64317  42.9985 274.0524 0000860 306.0432  54.0356 15.70852323 45846","category":"Starlink"}]}